{
  "phoneNumber": "13823604011",
  "statistics": [{
    "all": 152,
    "exception": "0,1,2,3",
    "phoneNumber": "13823604011",
    "operate": "中国移动",
"areacode":"0753",
    "called": 97,
    "phone": "4007234772",
    "city": "深圳",
    "integral": 745,
    "calling": 55,
    "integralSort": 1
  }, {
    "all": 97,
    "exception": "0,1,3",
    "phoneNumber": "13823604011",
    "operate": "中国移动",
"areacode":"0752",
    "called": 61,
    "phone": "8006234267",
    "city": "深圳",
    "integral": 475,
    "calling": 36,
    "integralSort": 2
  }, {
    "all": 98,
    "exception": "0,1,3",
    "phoneNumber": "13823604011",
    "operate": "中国移动",
"areacode":"0752",
    "called": 50,
    "phone": "13823216186",
    "city": "深圳",
    "integral": 422,
    "calling": 48,
    "integralSort": 3
  }, {
    "all": 96,
    "exception": "0,1,3",
    "phoneNumber": "13823604011",
    "operate": "中国移动",
"areacode":"0755",
    "called": 52,
    "phone": "17032173718",
    "city": "东莞",
    "integral": 407,
    "calling": 44,
    "integralSort": 4
  }, {
    "all": 40,
    "exception": "0,1",
    "phoneNumber": "13823604011",
    "operate": "中国移动",
"areacode":"0755",
    "called": 20,
    "phone": "13928974408",
    "city": "广州",
    "integral": 192,
    "calling": 20,
    "integralSort": 5
  }, {
    "all": 43,
    "exception": "0",
    "phoneNumber": "13823604011",
    "operate": "中国移动",
"areacode":"0755",
    "called": 29,
    "phone": "0084324273",
    "city": "深圳",
    "integral": 185,
    "calling": 14,
    "integralSort": 6
  }, {
    "all": 41,
    "exception": "0,1",
    "phoneNumber": "13823604011",
    "operate": "中国移动",
"areacode":"0755",
    "called": 15,
    "phone": "13823333334",
    "city": "深圳",
    "integral": 174,
    "calling": 26,
    "integralSort": 7
  }, {
    "all": 33,
    "exception": "0",
    "phoneNumber": "13823604011",
    "operate": "中国移动",
"areacode":"0755",
    "called": 17,
    "phone": "13809869141",
    "city": "深圳",
    "integral": 151,
    "calling": 16,
    "integralSort": 8
  }, {
    "all": 22,
    "exception": "0,1",
    "phoneNumber": "13823604011",
    "operate": "中国移动",
"areacode":"0755",
    "called": 15,
    "phone": "13425137348",
    "city": "深圳",
    "integral": 95,
    "calling": 7,
    "integralSort": 9
  }, {
    "all": 17,
    "exception": "0",
    "phoneNumber": "13823604011",
    "operate": "中国移动",
"areacode":"0755",
    "called": 10,
    "phone": "00853897678",
    "city": "深圳",
    "integral": 86,
    "calling": 7,
    "integralSort": 10
  }, {
    "all": 17,
    "exception": "0,1",
    "phoneNumber": "13823604011",
    "operate": "中国电信",
    "areacode":"0750",
    "called": 7,
    "phone": "18025334446",
    "city": "深圳",
    "integral": 60,
    "calling": 10,
    "integralSort": 14
  },
    {
    "all": 14,
    "exception": "0,1",
    "phoneNumber": "13823604011",
    "operate": "中国移动",
"areacode":"0755",
    "called": 6,
    "phone": "13826552062",
    "city": "深圳",
    "integral": 57,
    "calling": 8,
    "integralSort": 15
  }, {
    "all": 8,
    "exception": "0,1",
    "phoneNumber": "13823604011",
    "operate": "中国移动",
"areacode":"0755",
    "called": 4,
    "phone": "13925002364",
    "city": "广州",
    "integral": 46,
    "calling": 4,
    "integralSort": 16
  }]
}
